CCSDS_OMM_VERS = 2.0
CREATION_DATE  = 
ORIGINATOR     = 

OBJECT_NAME    = HTV-X1
OBJECT_ID      = 2025-241A
CENTER_NAME    = EARTH
REF_FRAME      = TEME
TIME_SYSTEM    = UTC
MEAN_ELEMENT_THEORY = SGP/SGP4

EPOCH          = 2026-03-24T07:44:52.392768
MEAN_MOTION    = 15.32402906
ECCENTRICITY   = .0007466
INCLINATION    = 51.6376
RA_OF_ASC_NODE = 2.5775
ARG_OF_PERICENTER = 227.6504
MEAN_ANOMALY   = 132.3845

EPHEMERIS_TYPE = 0
CLASSIFICATION_TYPE = U
NORAD_CAT_ID   = 66174
ELEMENT_SET_NO = 999
REV_AT_EPOCH   = 2318
BSTAR          = .18606E-3
MEAN_MOTION_DOT = .5545E-4
MEAN_MOTION_DDOT = 0

CCSDS_OMM_VERS = 2.0
CREATION_DATE  = 
ORIGINATOR     = 

OBJECT_NAME    = SZ-21 MODULE
OBJECT_ID      = 2025-246C
CENTER_NAME    = EARTH
REF_FRAME      = TEME
TIME_SYSTEM    = UTC
MEAN_ELEMENT_THEORY = SGP/SGP4

EPOCH          = 2026-03-24T10:58:38.996256
MEAN_MOTION    = 15.69668398
ECCENTRICITY   = .0000853
INCLINATION    = 41.4738
RA_OF_ASC_NODE = 112.3746
ARG_OF_PERICENTER = 213.1562
MEAN_ANOMALY   = 146.9227

EPHEMERIS_TYPE = 0
CLASSIFICATION_TYPE = U
NORAD_CAT_ID   = 66515
ELEMENT_SET_NO = 999
REV_AT_EPOCH   = 2039
BSTAR          = .27749E-3
MEAN_MOTION_DOT = .33703E-3
MEAN_MOTION_DDOT = 0

CCSDS_OMM_VERS = 2.0
CREATION_DATE  = 
ORIGINATOR     = 

OBJECT_NAME    = SHENZHOU-22
OBJECT_ID      = 2025-272A
CENTER_NAME    = EARTH
REF_FRAME      = TEME
TIME_SYSTEM    = UTC
MEAN_ELEMENT_THEORY = SGP/SGP4

EPOCH          = 2026-03-24T11:51:17.918496
MEAN_MOTION    = 15.61427580
ECCENTRICITY   = .0004758
INCLINATION    = 41.4663
RA_OF_ASC_NODE = 118.0307
ARG_OF_PERICENTER = 10.7895
MEAN_ANOMALY   = 349.3045

EPHEMERIS_TYPE = 0
CLASSIFICATION_TYPE = U
NORAD_CAT_ID   = 66645
ELEMENT_SET_NO = 999
REV_AT_EPOCH   = 27999
BSTAR          = .224E-3
MEAN_MOTION_DOT = .19397E-3
MEAN_MOTION_DDOT = 0

CCSDS_OMM_VERS = 2.0
CREATION_DATE  = 
ORIGINATOR     = 

OBJECT_NAME    = SOYUZ-MS 28
OBJECT_ID      = 2025-275A
CENTER_NAME    = EARTH
REF_FRAME      = TEME
TIME_SYSTEM    = UTC
MEAN_ELEMENT_THEORY = SGP/SGP4

EPOCH          = 2026-03-24T11:40:14.731104
MEAN_MOTION    = 15.48523431
ECCENTRICITY   = .0006234
INCLINATION    = 51.6345
RA_OF_ASC_NODE = 359.2131
ARG_OF_PERICENTER = 227.6352
MEAN_ANOMALY   = 132.4108

EPHEMERIS_TYPE = 0
CLASSIFICATION_TYPE = U
NORAD_CAT_ID   = 66664
ELEMENT_SET_NO = 999
REV_AT_EPOCH   = 55867
BSTAR          = .25488E-3
MEAN_MOTION_DOT = .13391E-3
MEAN_MOTION_DDOT = 0

CCSDS_OMM_VERS = 2.0
CREATION_DATE  = 
ORIGINATOR     = 

OBJECT_NAME    = DUPLEX
OBJECT_ID      = 1998-067XS
CENTER_NAME    = EARTH
REF_FRAME      = TEME
TIME_SYSTEM    = UTC
MEAN_ELEMENT_THEORY = SGP/SGP4

EPOCH          = 2026-03-24T11:30:41.658048
MEAN_MOTION    = 15.57139447
ECCENTRICITY   = .0003163
INCLINATION    = 51.6302
RA_OF_ASC_NODE = 355.4219
ARG_OF_PERICENTER = 176.3649
MEAN_ANOMALY   = 183.7366

EPHEMERIS_TYPE = 0
CLASSIFICATION_TYPE = U
NORAD_CAT_ID   = 66906
ELEMENT_SET_NO = 999
REV_AT_EPOCH   = 1743
BSTAR          = .37156E-3
MEAN_MOTION_DOT = .27087E-3
MEAN_MOTION_DDOT = 0

CCSDS_OMM_VERS = 2.0
CREATION_DATE  = 
ORIGINATOR     = 

OBJECT_NAME    = ISS OBJECT XT
OBJECT_ID      = 1998-067XT
CENTER_NAME    = EARTH
REF_FRAME      = TEME
TIME_SYSTEM    = UTC
MEAN_ELEMENT_THEORY = SGP/SGP4

EPOCH          = 2026-03-24T11:03:07.332192
MEAN_MOTION    = 15.74515234
ECCENTRICITY   = .0005402
INCLINATION    = 51.6252
RA_OF_ASC_NODE = 350.0134
ARG_OF_PERICENTER = 175.0560
MEAN_ANOMALY   = 185.0493

EPHEMERIS_TYPE = 0
CLASSIFICATION_TYPE = U
NORAD_CAT_ID   = 66907
ELEMENT_SET_NO = 999
REV_AT_EPOCH   = 1750
BSTAR          = .1224E-2
MEAN_MOTION_DOT = .185654E-2
MEAN_MOTION_DDOT = 0

CCSDS_OMM_VERS = 2.0
CREATION_DATE  = 
ORIGINATOR     = 

OBJECT_NAME    = ISS OBJECT XU
OBJECT_ID      = 1998-067XU
CENTER_NAME    = EARTH
REF_FRAME      = TEME
TIME_SYSTEM    = UTC
MEAN_ELEMENT_THEORY = SGP/SGP4

EPOCH          = 2026-03-24T10:58:33.663648
MEAN_MOTION    = 15.74708720
ECCENTRICITY   = .0005644
INCLINATION    = 51.6249
RA_OF_ASC_NODE = 349.9877
ARG_OF_PERICENTER = 175.3702
MEAN_ANOMALY   = 184.7351

EPHEMERIS_TYPE = 0
CLASSIFICATION_TYPE = U
NORAD_CAT_ID   = 66908
ELEMENT_SET_NO = 999
REV_AT_EPOCH   = 1750
BSTAR          = .12296E-2
MEAN_MOTION_DOT = .188153E-2
MEAN_MOTION_DDOT = 0

CCSDS_OMM_VERS = 2.0
CREATION_DATE  = 
ORIGINATOR     = 

OBJECT_NAME    = SILVERSAT
OBJECT_ID      = 1998-067XV
CENTER_NAME    = EARTH
REF_FRAME      = TEME
TIME_SYSTEM    = UTC
MEAN_ELEMENT_THEORY = SGP/SGP4

EPOCH          = 2026-03-23T23:33:34.407072
MEAN_MOTION    = 15.78994089
ECCENTRICITY   = .00062297
INCLINATION    = 51.6221
RA_OF_ASC_NODE = 351.3039
ARG_OF_PERICENTER = 177.1516
MEAN_ANOMALY   = 182.9521

EPHEMERIS_TYPE = 0
CLASSIFICATION_TYPE = U
NORAD_CAT_ID   = 66909
ELEMENT_SET_NO = 999
REV_AT_EPOCH   = 1744
BSTAR          = .15388739E-2
MEAN_MOTION_DOT = .288378E-2
MEAN_MOTION_DDOT = 0

CCSDS_OMM_VERS = 2.0
CREATION_DATE  = 
ORIGINATOR     = 

OBJECT_NAME    = ISS OBJECT XW
OBJECT_ID      = 1998-067XW
CENTER_NAME    = EARTH
REF_FRAME      = TEME
TIME_SYSTEM    = UTC
MEAN_ELEMENT_THEORY = SGP/SGP4

EPOCH          = 2026-03-24T11:08:04.618176
MEAN_MOTION    = 15.73305424
ECCENTRICITY   = .0005904
INCLINATION    = 51.6240
RA_OF_ASC_NODE = 350.0286
ARG_OF_PERICENTER = 174.9033
MEAN_ANOMALY   = 185.2027

EPHEMERIS_TYPE = 0
CLASSIFICATION_TYPE = U
NORAD_CAT_ID   = 66910
ELEMENT_SET_NO = 999
REV_AT_EPOCH   = 1750
BSTAR          = .11502E-2
MEAN_MOTION_DOT = .16516E-2
MEAN_MOTION_DDOT = 0

CCSDS_OMM_VERS = 2.0
CREATION_DATE  = 
ORIGINATOR     = 

OBJECT_NAME    = ISS OBJECT XX
OBJECT_ID      = 1998-067XX
CENTER_NAME    = EARTH
REF_FRAME      = TEME
TIME_SYSTEM    = UTC
MEAN_ELEMENT_THEORY = SGP/SGP4

EPOCH          = 2026-03-24T10:42:11.541888
MEAN_MOTION    = 15.84695682
ECCENTRICITY   = .0007866
INCLINATION    = 51.6199
RA_OF_ASC_NODE = 347.6223
ARG_OF_PERICENTER = 183.5979
MEAN_ANOMALY   = 176.4969

EPHEMERIS_TYPE = 0
CLASSIFICATION_TYPE = U
NORAD_CAT_ID   = 66911
ELEMENT_SET_NO = 999
REV_AT_EPOCH   = 1752
BSTAR          = .1582E-2
MEAN_MOTION_DOT = .391459E-2
MEAN_MOTION_DDOT = 0

CCSDS_OMM_VERS = 2.0
CREATION_DATE  = 
ORIGINATOR     = 

OBJECT_NAME    = ISS OBJECT XY
OBJECT_ID      = 1998-067XY
CENTER_NAME    = EARTH
REF_FRAME      = TEME
TIME_SYSTEM    = UTC
MEAN_ELEMENT_THEORY = SGP/SGP4

EPOCH          = 2026-03-24T11:00:14.417280
MEAN_MOTION    = 15.66654645
ECCENTRICITY   = .0004026
INCLINATION    = 51.6275
RA_OF_ASC_NODE = 352.2703
ARG_OF_PERICENTER = 174.2260
MEAN_ANOMALY   = 185.8783

EPHEMERIS_TYPE = 0
CLASSIFICATION_TYPE = U
NORAD_CAT_ID   = 66912
ELEMENT_SET_NO = 999
REV_AT_EPOCH   = 1746
BSTAR          = .88169E-3
MEAN_MOTION_DOT = .9496E-3
MEAN_MOTION_DDOT = 0

CCSDS_OMM_VERS = 2.0
CREATION_DATE  = 
ORIGINATOR     = 

OBJECT_NAME    = KNACKSAT-2
OBJECT_ID      = 1998-067XZ
CENTER_NAME    = EARTH
REF_FRAME      = TEME
TIME_SYSTEM    = UTC
MEAN_ELEMENT_THEORY = SGP/SGP4

EPOCH          = 2026-03-24T00:26:27.950784
MEAN_MOTION    = 15.53013062
ECCENTRICITY   = .00098227
INCLINATION    = 51.6326
RA_OF_ASC_NODE = 0.5913
ARG_OF_PERICENTER = 237.4563
MEAN_ANOMALY   = 122.5479

EPHEMERIS_TYPE = 0
CLASSIFICATION_TYPE = U
NORAD_CAT_ID   = 67683
ELEMENT_SET_NO = 999
REV_AT_EPOCH   = 701
BSTAR          = .61191478E-3
MEAN_MOTION_DOT = .38683E-3
MEAN_MOTION_DDOT = 0

